SCD 1                   
1 22490U 93009B   23150.68526751  .00000450  00000+0  73991-4 0  9990
2 22490  24.9688 236.5706 0042459 243.0319 281.4520 14.44928406599828
TECHSAT 1B (GO-32)      
1 25397U 98043D   23150.86360953  .00000080  00000+0  54945-4 0  9999
2 25397  98.8677 108.1712 0001585 140.9774 219.1518 14.23873997292861
SCD 2                   
1 25504U 98060A   23151.23036166  .00000436  00000+0  72624-4 0  9995
2 25504  24.9952  90.1140 0016915 251.2334 256.6770 14.44426458299539
LANDSAT 7               
1 25682U 99020A   23151.57182715  .00000450  00000+0  10261-3 0  9992
2 25682  97.9300 190.6169 0001821  95.6758  58.1273 14.60101460283357
DLR-TUBSAT              
1 25757U 99029B   23151.44394870  .00000114  00000+0  39957-4 0  9998
2 25757  98.5331 103.2734 0015220 133.7555 226.4902 14.51659499271868
TERRA                   
1 25994U 99068A   23151.46262913  .00000498  00000+0  11505-3 0  9991
2 25994  98.0947 220.2606 0002916 110.2546 307.1987 14.59236076247341
MAROC-TUBSAT            
1 27004U 01056D   23150.91462209 -.00000017  00000+0  32539-4 0  9993
2 27004  99.6781 297.2180 0020593 117.5282 359.0647 13.70176707 73721
AQUA                    
1 27424U 02022A   23151.47534046  .00000839  00000+0  19249-3 0  9997
2 27424  98.2866  95.9483 0001024 106.6439   6.6173 14.58070587120926
IRS-P6 (RESOURCESAT-1)  
1 28051U 03046A   23151.44460858  .00000245  00000+0  10007-3 0  9991
2 28051  98.3595 217.0318 0059746  62.7735 353.1935 14.34353394 20909
SHIYAN 1 (SY-1)         
1 28220U 04012A   23150.99396633  .00003718  00000+0  26300-3 0  9992
2 28220  97.9870 158.9758 0008966 241.1799 118.8526 15.05496580 42416
AURA                    
1 28376U 04026A   23151.43061469  .00000831  00000+0  19302-3 0  9992
2 28376  98.2098  95.3276 0001401  97.1989 262.9368 14.57480947  3946
IRS-P5 (CARTOSAT-1)     
1 28649U 05017A   23151.14406962  .00001327  00000+0  16074-3 0  9999
2 28649  97.6677 204.5078 0002555 119.5378 240.6092 14.85226774978340
SINAH 1                 
1 28893U 05043D   23150.89715461  .00000407  00000+0  90220-4 0  9991
2 28893  98.1503 273.7947 0015583 159.4449 200.7383 14.62104226937713
EROS B                  
1 29079U 06014A   23150.57656193  .00016584  00000+0  70015-3 0  9990
2 29079  97.3425 270.3754 0024450 128.9216 231.4206 15.23064810949247
RESURS-DK 1             
1 29228U 06021A   23150.89467714  .00001846  00000+0  13751-3 0  9997
2 29228  69.9347 322.7271 0007503 253.0484 106.9856 15.04793280934615
ARIRANG-2 (KOMPSAT-2)   
1 29268U 06031A   23151.41577926  .00000324  00000+0  71686-4 0  9990
2 29268  97.9080  11.4415 0014941   3.6573 119.5659 14.63114571898768
LAPAN-TUBSAT            
1 29709U 07001A   23151.43913864  .00000600  00000+0  80299-4 0  9992
2 29709  98.0182 118.9259 0012103 198.7391 161.3378 14.83088213886073
CARTOSAT-2 (IRS-P7)     
1 29710U 07001B   23151.33950045  .00032602  00000+0  45807-3 0  9997
2 29710  97.8898 286.9618 0099784 261.6601  97.3326 15.50889127889695
HAIYANG-1B              
1 31113U 07010A   23150.93598792  .00000097  00000+0  53116-4 0  9995
2 31113  98.2968 165.5350 0012383 262.0104  97.9675 14.30430100841440
COSMO-SKYMED 1          
1 31598U 07023A   23151.48638261  .00000544  00000+0  74881-4 0  9992
2 31598  97.8882 335.2037 0001153  96.5439 263.5905 14.82146405864518
TERRASAR-X              
1 31698U 07026A   23150.68858366  .00001580  00000+0  78387-4 0  9993
2 31698  97.4448 158.3214 0001724  86.1378 274.0054 15.19153772884177
WORLDVIEW-1 (WV-1)      
1 32060U 07041A   23151.09128671  .00007482  00000+0  30563-3 0  9999
2 32060  97.3965 270.8089 0004037 328.2887  31.8107 15.24666846873442
YAOGAN 3                
1 32289U 07055A   23151.40291454  .00001839  00000+0  23383-3 0  9994
2 32289  97.9204 175.3008 0001954  94.8580 265.2857 14.82822987840563
COSMO-SKYMED 2          
1 32376U 07059A   23151.45260016  .00000523  00000+0  72227-4 0  9991
2 32376  97.8883 335.1717 0001311  93.8049 266.3314 14.82162324837255
RADARSAT-2              
1 32382U 07061A   23151.43136970  .00000094  00000+0  53418-4 0  9994
2 32382  98.5768 158.3250 0001279  89.8449 270.2880 14.29984759807031
CARTOSAT-2A             
1 32783U 08021A   23151.44332039  .00000945  00000+0  13564-3 0  9993
2 32783  97.9168 212.1773 0013873 119.5106 240.7490 14.78690959814448
HUANJING 1A (HJ-1A)     
1 33320U 08041A   23151.38513829  .00000708  00000+0  10353-3 0  9994
2 33320  97.6448 172.5569 0020946 175.2323 184.9093 14.78437485793789
HUANJING 1B (HJ-1B)     
1 33321U 08041B   23151.38021795  .00000974  00000+0  13835-3 0  9994
2 33321  97.6571 176.8187 0033227 195.3227 164.6982 14.78724187793782
GEOEYE 1                
1 33331U 08042A   23151.46954724  .00000562  00000+0  11437-3 0  9991
2 33331  98.0854 226.0124 0007661 266.8619  93.1707 14.64717541787294
THEOS                   
1 33396U 08049A   23151.42450337  .00000063  00000+0  50294-4 0  9997
2 33396  98.7041 219.4473 0001147  87.8165 272.3142 14.20011787760053
COSMO-SKYMED 3          
1 33412U 08054A   23151.45309871  .00002635  00000+0  25281-3 0  9995
2 33412  97.8892 340.9098 0018173  50.0638 310.2175 14.93867299790084
YAOGAN 4                
1 33446U 08061A   23151.42941452  .00001205  00000+0  17262-3 0  9996
2 33446  97.8516  86.8048 0017403  87.3396 272.9807 14.78265937780982
GOSAT (IBUKI)           
1 33492U 09002A   23150.87476735  .00000804  00000+0  15002-3 0  9992
2 33492  98.0079 265.2171 0001212  93.3804 266.7540 14.67580255768175
YAOGAN 6                
1 34839U 09021A   23151.45402073  .00008478  00000+0  24636-3 0  9996
2 34839  97.1242 122.3132 0025299 125.9684 234.3912 15.35381152784524
DEIMOS-1                
1 35681U 09041A   23151.44635296  .00000517  00000+0  88654-4 0  9995
2 35681  97.6857 349.1044 0002009 136.1648 223.9720 14.72523613742970
DUBAISAT-1              
1 35682U 09041B   23151.38188137  .00000992  00000+0  17294-3 0  9994
2 35682  97.8533 295.2997 0012111  43.9535 316.2632 14.70051285741377
OCEANSAT-2              
1 35931U 09051A   23151.41199272 -.00000084  00000+0 -31559-4 0  9993
2 35931  98.3111 231.1526 0017605 133.9443 226.3180 13.99349685723687
WORLDVIEW-2 (WV-2)      
1 35946U 09055A   23151.41859549  .00000142  00000+0  62031-4 0  9995
2 35946  98.4505 226.4534 0001478  20.8057 339.3189 14.37499484715897
SMOS                    
1 36036U 09059A   23150.92924743  .00000307  00000+0  11180-3 0  9995
2 36036  98.4436 338.4320 0001403  89.1039 271.0310 14.39783766713262
YAOGAN 7                
1 36110U 09069A   23151.21515543  .00000490  00000+0  79543-4 0  9997
2 36110  98.1599  19.7853 0026298  18.3316 341.8834 14.75509164725407
TANDEM-X                
1 36605U 10030A   23150.68858330  .00001512  00000+0  75194-4 0  9994
2 36605  97.4457 158.3209 0001767  96.2155 263.9281 15.19153371717591
CARTOSAT-2B             
1 36795U 10035A   23151.41305046  .00000878  00000+0  12663-3 0  9997
2 36795  97.9112 212.0555 0013105 192.5858 167.5028 14.78684299695488
YAOGAN 10               
1 36834U 10038A   23151.46322021  .00000692  00000+0  94245-4 0  9992
2 36834  97.9656 165.6115 0001764  93.9059  43.6674 14.81879493692300
COSMO-SKYMED 4          
1 37216U 10060A   23151.46525642  .00000509  00000+0  70467-4 0  9993
2 37216  97.8884 335.1843 0001451 100.2972 259.8405 14.82163626679806
RESOURCESAT-2           
1 37387U 11015A   23151.44050582  .00000174  00000+0  98826-4 0  9994
2 37387  98.6219 221.8393 0005303 134.2545 225.9069 14.21670455628608
HAIYANG-2A              
1 37781U 11043A   23151.25797938  .00000016  00000+0  58884-4 0  9990
2 37781  99.3199 156.1353 0001345  59.4894 300.6390 13.78756575593567
RASAT                   
1 37791U 11044D   23151.45896041  .00000583  00000+0  11607-3 0  9999
2 37791  98.0869 243.9759 0022922 111.7473 309.7731 14.65532194630075
SRMSAT                  
1 37841U 11058D   23150.81525468  .00000434  00000+0  92775-4 0  9992
2 37841  19.9732 315.0581 0011751 200.7472 188.2514 14.10896331600355
YAOGAN 13               
1 37941U 11072A   23151.43031765  .00009405  00000+0  34875-3 0  9993
2 37941  97.6777 113.6441 0000931 110.0093 250.1245 15.27841683637781
PLEIADES 1A             
1 38012U 11076F   23151.47549948  .00000392  00000+0  94239-4 0  9995
2 38012  98.1994 226.5296 0001416  85.1746 330.3759 14.58545649609805
ZIYUAN 1-02C (ZY 1-02C) 
1 38038U 11079A   23151.46585830  .00000264  00000+0  10547-3 0  9992
2 38038  98.5432 218.8682 0007248  35.9567  21.3857 14.36233603599422
ZIYUAN 3-1 (ZY 3-1)     
1 38046U 12001A   23151.47825650  .00007911  00000+0  33185-3 0  9994
2 38046  97.2965 218.1396 0006178  88.2098 271.9847 15.23733683632547
ARIRANG-3 (KOMPSAT-3)   
1 38338U 12025B   23151.44477745  .00000558  00000+0  12078-3 0  9997
2 38338  98.2197  93.6807 0010543   4.4498 355.6795 14.61961304588802
KANOPUS-V 1             
1 38707U 12039A   23151.03453185  .00006985  00000+0  24684-3 0  9995
2 38707  97.4791  77.3915 0002309  87.2939 272.8566 15.29513985602358
EXACTVIEW-1 (ADS-1B)    
1 38709U 12039C   23151.18604171  .00000119  00000+0  71730-4 0  9994
2 38709  98.9703 230.5586 0011807 134.9175 225.2963 14.24236147564234
SPOT 6                  
1 38755U 12047A   23151.41264831  .00000394  00000+0  94641-4 0  9996
2 38755  98.1896 219.0000 0001215 107.6814 252.4518 14.58566268570874
PLEIADES 1B             
1 39019U 12068A   23151.43058892  .00000394  00000+0  94537-4 0  9997
2 39019  98.1945 226.4677 0001307  92.7727 267.3622 14.58546611558646
GOKTURK 2               
1 39030U 12073A   23151.44543107  .00000486  00000+0  82735-4 0  9994
2 39030  97.8060  23.0900 0001433  62.8413 297.2941 14.73188347560580
LANDSAT 8               
1 39084U 13008A   23151.44111987  .00000396  00000+0  97991-4 0  9999
2 39084  98.2265 221.5854 0001145  93.1820 266.9510 14.57113829547678
SARAL                   
1 39086U 13009A   23151.47227800 -.00000776  00000+0 -27202-3 0  9998
2 39086  98.5479 337.0059 0001819  10.6373 349.4849 14.32217249536297
